NORAD_CAT_ID,OBJECT_NAME,OBJECT_TYPE,EPOCH,MEAN_MOTION,ECCENTRICITY,INCLINATION,RA_OF_ASC_NODE,ARG_OF_PERICENTER,MEAN_ANOMALY,BSTAR,MEAN_MOTION_DOT,MEAN_MOTION_DDOT,TLE_LINE0,TLE_LINE1,TLE_LINE2,SEMIMAJOR_AXIS,PERIOD,APOGEE,PERIGEE,DECAYED
55432.0,STARLINK-5637,PAYLOAD,2024-05-08 01:02:11,14.9832731,0.0002837,69.9995,355.3445,265.7934,94.2901,-5.7123e-06,-1.61e-06,0.0,0 STARLINK-5637,1 55432U 23014AT  24129.04318480 -.00000161  00000-0 -57123-5 0  9998,2 55432  69.9995 355.3445 0002837 265.7934  94.2901 14.98327310 70610,6950.201,96.107,574.038,570.094,0.0
55432.0,STARLINK-5637,PAYLOAD,2024-05-08 21:51:55,14.9833572,0.000323,69.999,353.1562,271.1484,88.9305,6.6814e-05,7.04e-06,0.0,0 STARLINK-5637,1 55432U 23014AT  24129.91105762  .00000704  00000-0  66814-4 0  9998,2 55432  69.9990 353.1562 0003230 271.1484  88.9305 14.98335720 70746,6950.175,96.107,574.285,569.795,0.0
55432.0,STARLINK-5637,PAYLOAD,2024-05-09 01:04:11,14.98326732,0.0002919,69.9999,352.8201,267.8799,92.2025,0.00024434,2.823e-05,0.0,0 STARLINK-5637,1 55432U 23014AT  24130.04457968  .00002823  00000-0  24434-3 0  9997,2 55432  69.9999 352.8201 0002919 267.8799  92.2025 14.98326732 69822,6950.203,96.107,574.097,570.039,0.0
55432.0,STARLINK-5637,PAYLOAD,2024-05-09 21:53:56,14.98332619,0.0002929,69.9999,350.6326,261.4765,98.6062,0.00015354,1.74e-05,0.0,0 STARLINK-5637,1 55432U 23014AT  24130.91245903  .00001740  00000-0  15354-3 0  9995,2 55432  69.9999 350.6326 0002929 261.4765  98.6062 14.98332619 70891,6950.185,96.107,574.086,570.014,0.0
55432.0,STARLINK-5637,PAYLOAD,2024-05-10 01:06:12,14.98335367,0.0003029,69.9995,350.2945,272.6051,87.4762,0.00018213,2.081e-05,0.0,0 STARLINK-5637,1 55432U 23014AT  24131.04597712  .00002081  00000-0  18213-3 0  9994,2 55432  69.9995 350.2945 0003029 272.6051  87.4762 14.98335367 69977,6950.176,96.107,574.147,569.936,0.0
55432.0,STARLINK-5637,PAYLOAD,2024-05-10 07:30:44,14.9833404,0.0002942,69.9998,349.6225,263.639,96.4434,0.00011387,1.266e-05,0.0,0 STARLINK-5637,1 55432U 23014AT  24131.31301928  .00001266  00000-0  11387-3 0  9995,2 55432  69.9998 349.6225 0002942 263.6390  96.4434 14.98334040 70955,6950.18,96.107,574.09,570.001,0.0
55432.0,STARLINK-5637,PAYLOAD,2024-05-10 21:55:57,14.98338229,0.0002988,69.9996,348.1065,270.6757,89.406,0.00012781,1.433e-05,0.0,0 STARLINK-5637,1 55432U 23014AT  24131.91385526  .00001433  00000-0  12781-3 0  9992,2 55432  69.9996 348.1065 0002988 270.6757  89.4060 14.98338229 71045,6950.167,96.106,574.109,569.956,0.0
55432.0,STARLINK-5637,PAYLOAD,2024-05-11 01:08:12,14.98351739,0.0002912,69.9996,347.7696,270.5235,89.5591,0.00026778,3.105e-05,0.0,0 STARLINK-5637,1 55432U 23014AT  24132.04737042  .00003105  00000-0  26778-3 0  9990,2 55432  69.9996 347.7696 0002912 270.5235  89.5591 14.98351739 70126,6950.126,96.106,574.015,569.967,0.0
55432.0,STARLINK-5637,PAYLOAD,2024-05-11 20:21:49,14.98323237,0.0002827,70.0003,345.7494,274.3558,85.7278,-0.00032075,-3.917e-05,0.0,0 STARLINK-5637,1 55432U 23014AT  24132.84848912 -.00003917  00000-0 -32075-3 0  9997,2 55432  70.0003 345.7494 0002827 274.3558  85.7278 14.98323237 70242,6950.214,96.107,574.044,570.114,0.0
55432.0,STARLINK-5637,PAYLOAD,2024-05-11 21:57:57,14.98322638,0.000278,70.0003,345.5809,274.3205,85.7636,-0.00032841,-4.008e-05,0.0,0 STARLINK-5637,1 55432U 23014AT  24132.91524951 -.00004008  00000-0 -32841-3 0  9992,2 55432  70.0003 345.5809 0002780 274.3205  85.7636 14.98322638 71194,6950.216,96.107,574.013,570.148,0.0
55432.0,STARLINK-5637,PAYLOAD,2024-05-12 07:34:48,14.98279412,0.0002882,70.0008,344.5706,271.8461,88.2368,-0.0010502,-0.00012585,0.0,0 STARLINK-5637,1 55432U 23014AT  24133.31583900 -.00012585  00000-0 -10502-2 0  9994,2 55432  70.0008 344.5706 0002882 271.8461  88.2368 14.98279412 70317,6950.349,96.11,574.217,570.211,0.0
55432.0,STARLINK-5637,PAYLOAD,2024-05-12 13:59:23,14.98241886,0.0003082,70.0006,343.898,268.1683,91.9123,-0.0015956,-0.00019037,0.0,0 STARLINK-5637,1 55432U 23014AT  24133.58290904 -.00019037  00000-0 -15956-2 0  9999,2 55432  70.0006 343.8980 0003082 268.1683  91.9123 14.98241886 71291,6950.465,96.113,574.473,570.188,0.0
55432.0,STARLINK-5637,PAYLOAD,2024-05-12 20:23:53,14.98285669,0.0002786,70.0012,343.2243,263.7712,96.3129,0.0015895,0.00018902,0.0,0 STARLINK-5637,1 55432U 23014AT  24133.84992812  .00018902  00000-0  15895-2 0  9995,2 55432  70.0012 343.2243 0002786 263.7712  96.3129 14.98285669 70390,6950.33,96.11,574.131,570.259,0.0
55432.0,STARLINK-5637,PAYLOAD,2024-05-12 22:00:02,14.98270908,0.0002912,70.0014,343.0555,270.4726,89.6099,0.0038634,0.00046239,0.0,0 STARLINK-5637,1 55432U 23014AT  24133.91669538  .00046239  00000-0  38634-2 0  9999,2 55432  70.0014 343.0555 0002912 270.4726  89.6099 14.98270908 71344,6950.376,96.111,574.265,570.217,0.0
55432.0,STARLINK-5637,PAYLOAD,2024-05-13 14:01:23,14.98338936,0.0003055,70.0006,341.3713,273.6242,86.4568,0.0011493,0.0001365,0.0,0 STARLINK-5637,1 55432U 23014AT  24134.58429862  .00013650  00000-0  11493-2 0  9992,2 55432  70.0006 341.3713 0003055 273.6242  86.4568 14.98338936 71442,6950.165,96.106,574.154,569.907,0.0
55432.0,STARLINK-5637,PAYLOAD,2024-05-13 20:25:55,14.98342912,0.0003045,70.0006,340.6985,276.7958,83.2854,0.00091231,0.00010813,0.0,0 STARLINK-5637,1 55432U 23014AT  24134.85133698  .00010813  00000-0  91231-3 0  9998,2 55432  70.0006 340.6985 0003045 276.7958  83.2854 14.98342912 71488,6950.153,96.106,574.134,569.902,0.0
55432.0,STARLINK-5637,PAYLOAD,2024-05-14 20:27:55,14.9835886,0.0003021,70.0015,338.1738,277.1955,82.886,0.00078309,9.27e-05,0.0,0 STARLINK-5637,1 55432U 23014AT  24135.85272356  .00009270  00000-0  78309-3 0  9990,2 55432  70.0015 338.1738 0003021 277.1955  82.8860 14.98358860 70695,6950.104,96.105,574.068,569.869,0.0
55432.0,STARLINK-5637,PAYLOAD,2024-05-14 22:04:03,14.98360383,0.0002953,70.0015,338.0053,277.4616,82.6208,0.00075823,8.973e-05,0.0,0 STARLINK-5637,1 55432U 23014AT  24135.91948207  .00008973  00000-0  75823-3 0  9999,2 55432  70.0015 338.0053 0002953 277.4616  82.6208 14.98360383 71647,6950.099,96.105,574.016,569.912,0.0
55432.0,STARLINK-5637,PAYLOAD,2024-05-15 14:05:22,14.9836312,0.0002819,70.003,336.3222,278.6302,81.4537,0.00050431,5.935e-05,0.0,0 STARLINK-5637,1 55432U 23014AT  24136.58706975  .00005935  00000-0  50431-3 0  9990,2 55432  70.0030 336.3222 0002819 278.6302  81.4537 14.98363120 71744,6950.09,96.105,573.915,569.996,0.0
55432.0,STARLINK-5637,PAYLOAD,2024-05-15 20:29:54,14.98363421,0.0002783,70.0016,335.6488,277.9257,82.1586,0.00043218,5.072e-05,0.0,0 STARLINK-5637,1 55432U 23014AT  24136.85410462  .00005072  00000-0  43218-3 0  9990,2 55432  70.0016 335.6488 0002783 277.9257  82.1586 14.98363421 70841,6950.09,96.105,573.889,570.02,0.0
55432.0,STARLINK-5637,PAYLOAD,2024-05-15 22:06:02,14.98365038,0.000277,70.0016,335.4806,277.8974,82.187,0.00045567,5.353e-05,0.0,0 STARLINK-5637,1 55432U 23014AT  24136.92086275  .00005353  00000-0  45567-3 0  9990,2 55432  70.0016 335.4806 0002770 277.8974  82.1870 14.98365038 71791,6950.085,96.105,573.875,570.024,0.0
55432.0,STARLINK-5637,PAYLOAD,2024-05-16 06:06:42,14.9835675,0.0001835,70.005,334.6376,276.5199,83.5751,0.00025576,2.962e-05,0.0,0 STARLINK-5637,1 55432U 23014AT  24137.25466044  .00002962  00000-0  25576-3 0  9994,2 55432  70.0050 334.6376 0001835 276.5199  83.5751 14.98356750 70904,6950.11,96.105,573.251,570.7,0.0
55432.0,STARLINK-5637,PAYLOAD,2024-05-16 18:55:46,14.98361293,0.0002219,70.0046,333.2921,269.6547,90.4357,-5.3782e-05,-7.35e-06,0.0,0 STARLINK-5637,1 55432U 23014AT  24137.78872916 -.00000735  00000-0 -53782-4 0  9990,2 55432  70.0046 333.2921 0002219 269.6547  90.4357 14.98361293 71927,6950.096,96.105,573.503,570.419,0.0
55432.0,STARLINK-5637,PAYLOAD,2024-05-17 12:33:15,14.98338593,0.0003989,70.0009,331.4392,270.1492,89.921,-4.2401e-05,-5.99e-06,0.0,0 STARLINK-5637,1 55432U 23014AT  24138.52309162 -.00000599  00000-0 -42401-4 0  9995,2 55432  70.0009 331.4392 0003989 270.1492  89.9210 14.98338593 71095,6950.166,96.106,574.804,569.259,0.0
55432.0,STARLINK-5637,PAYLOAD,2024-05-17 18:57:47,14.98325826,0.0003526,70.0011,330.7658,273.702,86.3735,-0.00030036,-3.675e-05,0.0,0 STARLINK-5637,1 55432U 23014AT  24138.79013625 -.00003675  00000-0 -30036-3 0  9998,2 55432  70.0011 330.7658 0003526 273.7020  86.3735 14.98325826 71131,6950.206,96.107,574.521,569.62,0.0
55432.0,STARLINK-5637,PAYLOAD,2024-05-17 22:10:04,14.98328368,0.0002429,70.0028,330.4303,263.82,96.2682,-0.00016368,-2.045e-05,0.0,0 STARLINK-5637,1 55432U 23014AT  24138.92365923 -.00002045  00000-0 -16368-3 0  9996,2 55432  70.0028 330.4303 0002429 263.8200  96.2682 14.98328368 72095,6950.198,96.107,573.751,570.375,0.0
55432.0,STARLINK-5637,PAYLOAD,2024-05-18 12:35:16,14.98333146,0.000333,70.0008,328.9145,271.5277,88.55,0.00019333,2.215e-05,0.0,0 STARLINK-5637,1 55432U 23014AT  24139.52449468  .00002215  00000-0  19333-3 0  9992,2 55432  70.0008 328.9145 0003330 271.5277  88.5500 14.98333146 71240,6950.183,96.107,574.363,569.734,0.0
55432.0,STARLINK-5637,PAYLOAD,2024-05-18 14:11:24,14.98338352,0.000284,70.0002,328.7456,274.9948,85.0887,6.8943e-05,7.3e-06,0.0,0 STARLINK-5637,1 55432U 23014AT  24139.59125293  .00000730  00000-0  68943-4 0  9998,2 55432  70.0002 328.7456 0002840 274.9948  85.0887 14.98338352 72193,6950.167,96.106,574.006,570.058,0.0
55432.0,STARLINK-5637,PAYLOAD,2024-05-18 20:35:56,14.98346762,0.0003096,70.0004,328.0724,271.0103,89.0701,0.00030831,3.589e-05,0.0,0 STARLINK-5637,1 55432U 23014AT  24139.85828905  .00003589  00000-0  30831-3 0  9996,2 55432  70.0004 328.0724 0003096 271.0103  89.0701 14.98346762 71294,6950.141,96.106,574.158,569.854,0.0
55432.0,STARLINK-5637,PAYLOAD,2024-05-18 22:12:04,14.98346306,0.0002954,70.0006,327.9043,271.9828,88.0992,0.00063902,7.543e-05,0.0,0 STARLINK-5637,1 55432U 23014AT  24139.92505107  .00007543  00000-0  63902-3 0  9999,2 55432  70.0006 327.9043 0002954 271.9828  88.0992 14.98346306 72244,6950.142,96.106,574.061,569.954,0.0
